<?xml version="1.0" encoding="utf-8" ?>
<kml xmlns="http://www.opengis.net/kml/2.2">
<Document id="root_doc">
<Schema name="Hospitales" id="Hospitales">
	<SimpleField name="Direccion" type="string"></SimpleField>
</Schema>
<Folder><name>Hospitales</name>
  <Placemark>
	<name>Hospital Ramón Santamarina</name>
	<ExtendedData><SchemaData schemaUrl="#Hospitales">
		<SimpleData name="Direccion">Paz 1406</SimpleData>
	</SchemaData></ExtendedData>
      <Point><coordinates>-59.138781,-37.315317</coordinates></Point>
  </Placemark>
  <Placemark>
	<name>Hospital de Niños Dr. Debilio Blanco Villegas</name>
	<ExtendedData><SchemaData schemaUrl="#Hospitales">
		<SimpleData name="Direccion">Alem 1300</SimpleData>
	</SchemaData></ExtendedData>
      <Point><coordinates>-59.138732,-37.316347</coordinates></Point>
  </Placemark>
</Folder>
</Document></kml>
