{
  "type": "FeatureCollection",
  "generator": "overpass-turbo",
  "copyright": "The data included in this document is from www.openstreetmap.org. The data is made available under ODbL.",
  "timestamp": "2026-05-16T20:37:09Z",
  "features": [
    {
      "type": "Feature",
      "properties": {
        "@id": "way/121120639",
        "addr:city": "Tandil",
        "addr:housenumber": "351",
        "addr:street": "Panamá",
        "brand": "Carrefour",
        "brand:wikidata": "Q217599",
        "brand:wikipedia": "fr:Carrefour (enseigne)",
        "building": "yes",
        "name": "Carrefour",
        "shop": "supermarket"
      },
      "geometry": {
        "type": "Polygon",
        "coordinates": [
          [
            [
              -59.1149955,
              -37.3238196
            ],
            [
              -59.1142947,
              -37.3243602
            ],
            [
              -59.1140997,
              -37.3245106
            ],
            [
              -59.1138583,
              -37.3243144
            ],
            [
              -59.1137188,
              -37.3244125
            ],
            [
              -59.1133219,
              -37.3241011
            ],
            [
              -59.1133862,
              -37.3240457
            ],
            [
              -59.1135311,
              -37.3241566
            ],
            [
              -59.1135686,
              -37.324131
            ],
            [
              -59.1130161,
              -37.3236959
            ],
            [
              -59.1134667,
              -37.3233375
            ],
            [
              -59.1135364,
              -37.3233972
            ],
            [
              -59.1136598,
              -37.3232991
            ],
            [
              -59.1135954,
              -37.3232437
            ],
            [
              -59.1140139,
              -37.3229365
            ],
            [
              -59.1147352,
              -37.3235258
            ],
            [
              -59.1149955,
              -37.3237385
            ],
            [
              -59.1149955,
              -37.3238196
            ]
          ]
        ]
      },
      "id": "way/121120639"
    },
    {
      "type": "Feature",
      "properties": {
        "@id": "way/159451196",
        "name": "Supermercado Asia",
        "shop": "supermarket"
      },
      "geometry": {
        "type": "Polygon",
        "coordinates": [
          [
            [
              -59.1526603,
              -37.3068362
            ],
            [
              -59.1523376,
              -37.3071062
            ],
            [
              -59.152067,
              -37.3069014
            ],
            [
              -59.1523897,
              -37.3066315
            ],
            [
              -59.1526603,
              -37.3068362
            ]
          ]
        ]
      },
      "id": "way/159451196"
    },
    {
      "type": "Feature",
      "properties": {
        "@id": "way/397886508",
        "brand": "Carrefour",
        "brand:wikidata": "Q217599",
        "brand:wikipedia": "fr:Carrefour (enseigne)",
        "name": "Carrefour",
        "shop": "supermarket"
      },
      "geometry": {
        "type": "Polygon",
        "coordinates": [
          [
            [
              -59.1503265,
              -37.3135478
            ],
            [
              -59.1494896,
              -37.3141963
            ],
            [
              -59.1487445,
              -37.3147569
            ],
            [
              -59.148512,
              -37.314659
            ],
            [
              -59.1478124,
              -37.3143608
            ],
            [
              -59.1485152,
              -37.3138122
            ],
            [
              -59.149608,
              -37.312954
            ],
            [
              -59.1503265,
              -37.3135478
            ]
          ]
        ]
      },
      "id": "way/397886508"
    },
    {
      "type": "Feature",
      "properties": {
        "@id": "way/399565516",
        "building": "yes",
        "name": "Select",
        "shop": "convenience"
      },
      "geometry": {
        "type": "Polygon",
        "coordinates": [
          [
            [
              -59.1139219,
              -37.3107647
            ],
            [
              -59.1138043,
              -37.3108531
            ],
            [
              -59.1136931,
              -37.3107596
            ],
            [
              -59.1137097,
              -37.3107471
            ],
            [
              -59.1138107,
              -37.3106712
            ],
            [
              -59.1139219,
              -37.3107647
            ]
          ]
        ]
      },
      "id": "way/399565516"
    },
    {
      "type": "Feature",
      "properties": {
        "@id": "way/575245514",
        "building": "yes",
        "name": "Milesi Rogelio Frutas Legumbres y Hortalizas",
        "shop": "supermarket"
      },
      "geometry": {
        "type": "Polygon",
        "coordinates": [
          [
            [
              -59.170352,
              -37.325245
            ],
            [
              -59.1705969,
              -37.3254374
            ],
            [
              -59.1702611,
              -37.3257044
            ],
            [
              -59.1700146,
              -37.3255011
            ],
            [
              -59.1701699,
              -37.3253832
            ],
            [
              -59.170352,
              -37.325245
            ]
          ]
        ]
      },
      "id": "way/575245514"
    },
    {
      "type": "Feature",
      "properties": {
        "@id": "way/1002149550",
        "building": "yes",
        "name": "Axion Shop",
        "shop": "convenience"
      },
      "geometry": {
        "type": "Polygon",
        "coordinates": [
          [
            [
              -59.1310108,
              -37.3229944
            ],
            [
              -59.1309846,
              -37.3230372
            ],
            [
              -59.1309239,
              -37.3230137
            ],
            [
              -59.1310279,
              -37.3228387
            ],
            [
              -59.1310915,
              -37.3228626
            ],
            [
              -59.1310795,
              -37.3228823
            ],
            [
              -59.1310108,
              -37.3229944
            ]
          ]
        ]
      },
      "id": "way/1002149550"
    },
    {
      "type": "Feature",
      "properties": {
        "@id": "way/1321996476",
        "brand": "Carrefour",
        "brand:wikidata": "Q217599",
        "building": "yes",
        "name": "Carrefour",
        "operator": "Carrefour",
        "shop": "supermarket"
      },
      "geometry": {
        "type": "Polygon",
        "coordinates": [
          [
            [
              -59.1355609,
              -37.3262663
            ],
            [
              -59.1354188,
              -37.3265132
            ],
            [
              -59.1350252,
              -37.3263775
            ],
            [
              -59.1351761,
              -37.3261272
            ],
            [
              -59.1355609,
              -37.3262663
            ]
          ]
        ]
      },
      "id": "way/1321996476"
    },
    {
      "type": "Feature",
      "properties": {
        "@id": "way/1391914615",
        "addr:city": "Tandil",
        "addr:housenumber": "499",
        "addr:postcode": "7000",
        "addr:street": "Labardén",
        "building": "commercial",
        "name": "Almacén Selvetti",
        "opening_hours": "Mo-Su 08:00-22:00",
        "payment:app": "yes",
        "payment:cash": "yes",
        "payment:credit_cards": "yes",
        "payment:debit_cards": "yes",
        "payment:electronic_purses": "yes",
        "shop": "supermarket",
        "stroller": "yes"
      },
      "geometry": {
        "type": "Polygon",
        "coordinates": [
          [
            [
              -59.10378,
              -37.3127196
            ],
            [
              -59.1038248,
              -37.3127531
            ],
            [
              -59.103876,
              -37.3127967
            ],
            [
              -59.1037472,
              -37.3128942
            ],
            [
              -59.1036577,
              -37.312813
            ],
            [
              -59.1037354,
              -37.3127524
            ],
            [
              -59.10378,
              -37.3127196
            ]
          ]
        ]
      },
      "id": "way/1391914615"
    },
    {
      "type": "Feature",
      "properties": {
        "@id": "node/871916254",
        "addr:city": "Tandil",
        "addr:housenumber": "548",
        "addr:postcode": "7000",
        "addr:street": "9 de Julio",
        "brand": "Carrefour",
        "brand:wikidata": "Q217599",
        "brand:wikipedia": "fr:Carrefour (enseigne)",
        "name": "Carrefour",
        "operator": "Groupe Carrefour",
        "operator:wikidata": "Q3117359",
        "operator:wikipedia": "es:Carrefour",
        "shop": "supermarket"
      },
      "geometry": {
        "type": "Point",
        "coordinates": [
          -59.1350474,
          -37.3262564
        ]
      },
      "id": "node/871916254"
    },
    {
      "type": "Feature",
      "properties": {
        "@id": "node/871916259",
        "name": "Naturalmente II",
        "organic": "only",
        "shop": "supermarket"
      },
      "geometry": {
        "type": "Point",
        "coordinates": [
          -59.1266596,
          -37.330816
        ]
      },
      "id": "node/871916259"
    },
    {
      "type": "Feature",
      "properties": {
        "@id": "node/871916269",
        "name": "Corban",
        "shop": "supermarket"
      },
      "geometry": {
        "type": "Point",
        "coordinates": [
          -59.1158553,
          -37.3275692
        ]
      },
      "id": "node/871916269"
    },
    {
      "type": "Feature",
      "properties": {
        "@id": "node/871916301",
        "name": "Giga",
        "name:en": "La Fattoria",
        "name:es": "La Fattoria",
        "shop": "supermarket"
      },
      "geometry": {
        "type": "Point",
        "coordinates": [
          -59.1283144,
          -37.3279846
        ]
      },
      "id": "node/871916301"
    },
    {
      "type": "Feature",
      "properties": {
        "@id": "node/1123692681",
        "name": "Artículos de Limpiaeza",
        "shop": "convenience"
      },
      "geometry": {
        "type": "Point",
        "coordinates": [
          -59.1106589,
          -37.3335989
        ]
      },
      "id": "node/1123692681"
    },
    {
      "type": "Feature",
      "properties": {
        "@id": "node/1338988275",
        "shop": "convenience"
      },
      "geometry": {
        "type": "Point",
        "coordinates": [
          -59.1257359,
          -37.3176901
        ]
      },
      "id": "node/1338988275"
    },
    {
      "type": "Feature",
      "properties": {
        "@id": "node/1520108869",
        "name": "Autoservicio Moni",
        "shop": "convenience"
      },
      "geometry": {
        "type": "Point",
        "coordinates": [
          -59.123833,
          -37.3075026
        ]
      },
      "id": "node/1520108869"
    },
    {
      "type": "Feature",
      "properties": {
        "@id": "node/1532826984",
        "name": "Almacén",
        "shop": "convenience"
      },
      "geometry": {
        "type": "Point",
        "coordinates": [
          -59.1337547,
          -37.3311717
        ]
      },
      "id": "node/1532826984"
    },
    {
      "type": "Feature",
      "properties": {
        "@id": "node/1537718416",
        "name": "Quesos Don Atilio (Regionales)",
        "shop": "convenience"
      },
      "geometry": {
        "type": "Point",
        "coordinates": [
          -59.1051425,
          -37.319578
        ]
      },
      "id": "node/1537718416"
    },
    {
      "type": "Feature",
      "properties": {
        "@id": "node/1537735462",
        "name": "Puesto Chico (Regionales)",
        "shop": "convenience"
      },
      "geometry": {
        "type": "Point",
        "coordinates": [
          -59.1371789,
          -37.3338992
        ]
      },
      "id": "node/1537735462"
    },
    {
      "type": "Feature",
      "properties": {
        "@id": "node/1545314929",
        "name": "Margherita (Regionales)",
        "shop": "convenience"
      },
      "geometry": {
        "type": "Point",
        "coordinates": [
          -59.1321441,
          -37.3246953
        ]
      },
      "id": "node/1545314929"
    },
    {
      "type": "Feature",
      "properties": {
        "@id": "node/1545358849",
        "name": "Old Barries",
        "shop": "convenience"
      },
      "geometry": {
        "type": "Point",
        "coordinates": [
          -59.150231,
          -37.3180118
        ]
      },
      "id": "node/1545358849"
    },
    {
      "type": "Feature",
      "properties": {
        "@id": "node/1545360956",
        "addr:city": "Tandil",
        "addr:street": "Avenida Avellaneda",
        "air_conditioning": "yes",
        "name": "Almacén Serrano",
        "opening_date": "2003",
        "opening_hours": "Mo-Sa 09:00-21:00;Su 10:00-20:00",
        "payment:american_express": "yes",
        "payment:cards": "yes",
        "payment:cash": "yes",
        "payment:mastercard": "yes",
        "payment:visa": "yes",
        "phone": "+54 249 444-8102",
        "ref:vatin": "AR20226716913",
        "shop": "convenience"
      },
      "geometry": {
        "type": "Point",
        "coordinates": [
          -59.1325545,
          -37.333541
        ]
      },
      "id": "node/1545360956"
    },
    {
      "type": "Feature",
      "properties": {
        "@id": "node/1545364398",
        "name": "Don Rosendo (Regionales)",
        "shop": "convenience"
      },
      "geometry": {
        "type": "Point",
        "coordinates": [
          -59.1408859,
          -37.3366645
        ]
      },
      "id": "node/1545364398"
    },
    {
      "type": "Feature",
      "properties": {
        "@id": "node/1545368318",
        "name": "El Emporio de los Salamines",
        "shop": "convenience"
      },
      "geometry": {
        "type": "Point",
        "coordinates": [
          -59.1320838,
          -37.3349822
        ]
      },
      "id": "node/1545368318"
    },
    {
      "type": "Feature",
      "properties": {
        "@id": "node/1545372614",
        "name": "Heluney (Regionales)",
        "shop": "convenience"
      },
      "geometry": {
        "type": "Point",
        "coordinates": [
          -59.1269058,
          -37.3314963
        ]
      },
      "id": "node/1545372614"
    },
    {
      "type": "Feature",
      "properties": {
        "@id": "node/1545375073",
        "name": "El Trapiche (Productos Regionales)",
        "shop": "convenience"
      },
      "geometry": {
        "type": "Point",
        "coordinates": [
          -59.1297581,
          -37.3325391
        ]
      },
      "id": "node/1545375073"
    },
    {
      "type": "Feature",
      "properties": {
        "@id": "node/1545382366",
        "name": "La Serrana (Regionales)",
        "shop": "convenience"
      },
      "geometry": {
        "type": "Point",
        "coordinates": [
          -59.1350646,
          -37.3165016
        ]
      },
      "id": "node/1545382366"
    },
    {
      "type": "Feature",
      "properties": {
        "@id": "node/1545385273",
        "name": "Barros Argentinos (Artesanias)",
        "shop": "convenience"
      },
      "geometry": {
        "type": "Point",
        "coordinates": [
          -59.1331118,
          -37.3106516
        ]
      },
      "id": "node/1545385273"
    },
    {
      "type": "Feature",
      "properties": {
        "@id": "node/1547933720",
        "name": "Estancias Integradas (Regionales)",
        "shop": "convenience"
      },
      "geometry": {
        "type": "Point",
        "coordinates": [
          -59.1392542,
          -37.3334182
        ]
      },
      "id": "node/1547933720"
    },
    {
      "type": "Feature",
      "properties": {
        "@id": "node/1548010095",
        "name": "II Castello",
        "shop": "convenience"
      },
      "geometry": {
        "type": "Point",
        "coordinates": [
          -59.1187219,
          -37.3175093
        ]
      },
      "id": "node/1548010095"
    },
    {
      "type": "Feature",
      "properties": {
        "@id": "node/1548041693",
        "name": "Regionales de Las Sierras",
        "shop": "convenience"
      },
      "geometry": {
        "type": "Point",
        "coordinates": [
          -59.1206456,
          -37.3159811
        ]
      },
      "id": "node/1548041693"
    },
    {
      "type": "Feature",
      "properties": {
        "@id": "node/1548332612",
        "name": "Autoservicio",
        "shop": "supermarket"
      },
      "geometry": {
        "type": "Point",
        "coordinates": [
          -59.1404847,
          -37.3197556
        ]
      },
      "id": "node/1548332612"
    },
    {
      "type": "Feature",
      "properties": {
        "@id": "node/1549873398",
        "name": "Hamburguesería Suamburgé",
        "shop": "convenience"
      },
      "geometry": {
        "type": "Point",
        "coordinates": [
          -59.1478871,
          -37.319041
        ]
      },
      "id": "node/1549873398"
    },
    {
      "type": "Feature",
      "properties": {
        "@id": "node/1550333491",
        "name": "Las Dinas Productos Regionales",
        "shop": "convenience"
      },
      "geometry": {
        "type": "Point",
        "coordinates": [
          -59.1336146,
          -37.3665399
        ]
      },
      "id": "node/1550333491"
    },
    {
      "type": "Feature",
      "properties": {
        "@id": "node/2271534993",
        "addr:housenumber": "1370",
        "addr:postcode": "7000",
        "addr:street": "Belgrano",
        "name": "Autoservicio Pique",
        "shop": "convenience"
      },
      "geometry": {
        "type": "Point",
        "coordinates": [
          -59.1238605,
          -37.3246003
        ]
      },
      "id": "node/2271534993"
    },
    {
      "type": "Feature",
      "properties": {
        "@id": "node/2821103650",
        "addr:housenumber": "1050",
        "addr:street": "Serrano",
        "name": "Monarca",
        "name:es": "Monarca 565",
        "opening_hours": "Mo-Sa 08:30-21:30;Su,PH 09:00-13:30,17:00-21:30",
        "ref:vatin": "AR20111387282",
        "shop": "supermarket"
      },
      "geometry": {
        "type": "Point",
        "coordinates": [
          -59.1233011,
          -37.3345128
        ]
      },
      "id": "node/2821103650"
    },
    {
      "type": "Feature",
      "properties": {
        "@id": "node/3030966997",
        "addr:housenumber": "83",
        "addr:street": "Chacabuco",
        "name": "Autoservicio El Parque",
        "name:es": "Autoservicio El Parque 1964",
        "shop": "supermarket"
      },
      "geometry": {
        "type": "Point",
        "coordinates": [
          -59.1353493,
          -37.3335064
        ]
      },
      "id": "node/3030966997"
    },
    {
      "type": "Feature",
      "properties": {
        "@id": "node/3831881173",
        "brand": "Vea",
        "brand:wikidata": "Q5858167",
        "name": "Vea",
        "shop": "supermarket"
      },
      "geometry": {
        "type": "Point",
        "coordinates": [
          -59.1325092,
          -37.3271367
        ]
      },
      "id": "node/3831881173"
    },
    {
      "type": "Feature",
      "properties": {
        "@id": "node/3831881175",
        "addr:housenumber": "481",
        "addr:postcode": "7000",
        "addr:street": "Avenida Santamarina",
        "delivery": "yes",
        "name": "Supermercado Asia",
        "name:es": "Supermercado Asia (821)",
        "phone": "4436998",
        "shop": "supermarket"
      },
      "geometry": {
        "type": "Point",
        "coordinates": [
          -59.129777,
          -37.3253989
        ]
      },
      "id": "node/3831881175"
    },
    {
      "type": "Feature",
      "properties": {
        "@id": "node/3831881178",
        "shop": "supermarket"
      },
      "geometry": {
        "type": "Point",
        "coordinates": [
          -59.1278704,
          -37.3229109
        ]
      },
      "id": "node/3831881178"
    },
    {
      "type": "Feature",
      "properties": {
        "@id": "node/3831881183",
        "name": "Autoservicio El Mini",
        "shop": "supermarket"
      },
      "geometry": {
        "type": "Point",
        "coordinates": [
          -59.133497,
          -37.3164509
        ]
      },
      "id": "node/3831881183"
    },
    {
      "type": "Feature",
      "properties": {
        "@id": "node/3835195163",
        "brand": "Dia",
        "brand:wikidata": "Q925132",
        "brand:wikipedia": "es:Supermercados DIA",
        "name": "Dia",
        "shop": "supermarket",
        "wheelchair": "yes"
      },
      "geometry": {
        "type": "Point",
        "coordinates": [
          -59.1343992,
          -37.3175909
        ]
      },
      "id": "node/3835195163"
    },
    {
      "type": "Feature",
      "properties": {
        "@id": "node/3835195175",
        "shop": "convenience"
      },
      "geometry": {
        "type": "Point",
        "coordinates": [
          -59.1361753,
          -37.3145846
        ]
      },
      "id": "node/3835195175"
    },
    {
      "type": "Feature",
      "properties": {
        "@id": "node/3835195176",
        "shop": "supermarket"
      },
      "geometry": {
        "type": "Point",
        "coordinates": [
          -59.1360948,
          -37.3147544
        ]
      },
      "id": "node/3835195176"
    },
    {
      "type": "Feature",
      "properties": {
        "@id": "node/3891121383",
        "name": "Monarca",
        "shop": "supermarket"
      },
      "geometry": {
        "type": "Point",
        "coordinates": [
          -59.1377062,
          -37.3265978
        ]
      },
      "id": "node/3891121383"
    },
    {
      "type": "Feature",
      "properties": {
        "@id": "node/3962200822",
        "name": "La Queseria (Regionales)",
        "shop": "convenience"
      },
      "geometry": {
        "type": "Point",
        "coordinates": [
          -59.1343911,
          -37.3301367
        ]
      },
      "id": "node/3962200822"
    },
    {
      "type": "Feature",
      "properties": {
        "@id": "node/3964664702",
        "name": "Monarca",
        "shop": "supermarket",
        "wheelchair": "yes"
      },
      "geometry": {
        "type": "Point",
        "coordinates": [
          -59.1347889,
          -37.3174732
        ]
      },
      "id": "node/3964664702"
    },
    {
      "type": "Feature",
      "properties": {
        "@id": "node/3966757657",
        "name": "El Bonsai",
        "organic": "only",
        "shop": "supermarket"
      },
      "geometry": {
        "type": "Point",
        "coordinates": [
          -59.1373609,
          -37.331263
        ]
      },
      "id": "node/3966757657"
    },
    {
      "type": "Feature",
      "properties": {
        "@id": "node/3966757669",
        "addr:housenumber": "399",
        "addr:street": "Libertad",
        "name": "El Dique",
        "shop": "convenience"
      },
      "geometry": {
        "type": "Point",
        "coordinates": [
          -59.1307501,
          -37.3386887
        ]
      },
      "id": "node/3966757669"
    },
    {
      "type": "Feature",
      "properties": {
        "@id": "node/3966757680",
        "shop": "supermarket"
      },
      "geometry": {
        "type": "Point",
        "coordinates": [
          -59.1322487,
          -37.336838
        ]
      },
      "id": "node/3966757680"
    },
    {
      "type": "Feature",
      "properties": {
        "@id": "node/3966757682",
        "shop": "supermarket"
      },
      "geometry": {
        "type": "Point",
        "coordinates": [
          -59.1321778,
          -37.3358134
        ]
      },
      "id": "node/3966757682"
    },
    {
      "type": "Feature",
      "properties": {
        "@id": "node/3984573741",
        "name": "Kiosco La Cima",
        "shop": "convenience"
      },
      "geometry": {
        "type": "Point",
        "coordinates": [
          -59.138308,
          -37.3405834
        ]
      },
      "id": "node/3984573741"
    },
    {
      "type": "Feature",
      "properties": {
        "@id": "node/3987857574",
        "addr:housenumber": "20",
        "addr:street": "Fray Justo Santa María de Oro",
        "name": "Autoservicio",
        "name:es": "Palencia 1244",
        "shop": "supermarket"
      },
      "geometry": {
        "type": "Point",
        "coordinates": [
          -59.146649,
          -37.3273507
        ]
      },
      "id": "node/3987857574"
    },
    {
      "type": "Feature",
      "properties": {
        "@id": "node/3987857579",
        "shop": "convenience"
      },
      "geometry": {
        "type": "Point",
        "coordinates": [
          -59.1515908,
          -37.327731
        ]
      },
      "id": "node/3987857579"
    },
    {
      "type": "Feature",
      "properties": {
        "@id": "node/3987988506",
        "name": "Almacén",
        "shop": "convenience"
      },
      "geometry": {
        "type": "Point",
        "coordinates": [
          -59.1501079,
          -37.318285
        ]
      },
      "id": "node/3987988506"
    },
    {
      "type": "Feature",
      "properties": {
        "@id": "node/3987988507",
        "name": "Autoservicio",
        "shop": "supermarket"
      },
      "geometry": {
        "type": "Point",
        "coordinates": [
          -59.1522903,
          -37.3235979
        ]
      },
      "id": "node/3987988507"
    },
    {
      "type": "Feature",
      "properties": {
        "@id": "node/3989024834",
        "name": "Asia",
        "name:es": "181",
        "shop": "supermarket"
      },
      "geometry": {
        "type": "Point",
        "coordinates": [
          -59.1401285,
          -37.3230751
        ]
      },
      "id": "node/3989024834"
    },
    {
      "type": "Feature",
      "properties": {
        "@id": "node/3989024835",
        "name": "Lucia",
        "shop": "supermarket"
      },
      "geometry": {
        "type": "Point",
        "coordinates": [
          -59.1415151,
          -37.3252471
        ]
      },
      "id": "node/3989024835"
    },
    {
      "type": "Feature",
      "properties": {
        "@id": "node/3989958238",
        "shop": "convenience"
      },
      "geometry": {
        "type": "Point",
        "coordinates": [
          -59.1486606,
          -37.3236626
        ]
      },
      "id": "node/3989958238"
    },
    {
      "type": "Feature",
      "properties": {
        "@id": "node/3989958240",
        "addr:housenumber": "1299",
        "addr:street": "Avenida Perón",
        "name": "Monarca",
        "name:es": "Monarca 565",
        "shop": "supermarket"
      },
      "geometry": {
        "type": "Point",
        "coordinates": [
          -59.1497764,
          -37.3212139
        ]
      },
      "id": "node/3989958240"
    },
    {
      "type": "Feature",
      "properties": {
        "@id": "node/3989958252",
        "name": "Almacén",
        "shop": "convenience"
      },
      "geometry": {
        "type": "Point",
        "coordinates": [
          -59.1536442,
          -37.3180834
        ]
      },
      "id": "node/3989958252"
    },
    {
      "type": "Feature",
      "properties": {
        "@id": "node/3990924005",
        "addr:housenumber": "1097",
        "addr:street": "Avenida Lunghi",
        "name": "Almacén",
        "name:es": "Almacén Abad (1219)",
        "shop": "convenience"
      },
      "geometry": {
        "type": "Point",
        "coordinates": [
          -59.1574638,
          -37.3102861
        ]
      },
      "id": "node/3990924005"
    },
    {
      "type": "Feature",
      "properties": {
        "@id": "node/3991324866",
        "addr:city": "Tandil",
        "addr:postcode": "7000",
        "addr:street": "San Lorenzo",
        "name": "Almacén Mixtito",
        "shop": "convenience"
      },
      "geometry": {
        "type": "Point",
        "coordinates": [
          -59.1421145,
          -37.3283443
        ]
      },
      "id": "node/3991324866"
    },
    {
      "type": "Feature",
      "properties": {
        "@id": "node/3991324867",
        "name": "Almacén",
        "shop": "convenience"
      },
      "geometry": {
        "type": "Point",
        "coordinates": [
          -59.1430183,
          -37.3288321
        ]
      },
      "id": "node/3991324867"
    },
    {
      "type": "Feature",
      "properties": {
        "@id": "node/3993901114",
        "name": "Almacén",
        "shop": "convenience"
      },
      "geometry": {
        "type": "Point",
        "coordinates": [
          -59.1400059,
          -37.3291613
        ]
      },
      "id": "node/3993901114"
    },
    {
      "type": "Feature",
      "properties": {
        "@id": "node/3994608357",
        "shop": "convenience"
      },
      "geometry": {
        "type": "Point",
        "coordinates": [
          -59.1394922,
          -37.3214359
        ]
      },
      "id": "node/3994608357"
    },
    {
      "type": "Feature",
      "properties": {
        "@id": "node/3995785228",
        "name": "Almacén",
        "shop": "convenience"
      },
      "geometry": {
        "type": "Point",
        "coordinates": [
          -59.1505676,
          -37.3156929
        ]
      },
      "id": "node/3995785228"
    },
    {
      "type": "Feature",
      "properties": {
        "@id": "node/3995785232",
        "shop": "convenience"
      },
      "geometry": {
        "type": "Point",
        "coordinates": [
          -59.1514581,
          -37.315835
        ]
      },
      "id": "node/3995785232"
    },
    {
      "type": "Feature",
      "properties": {
        "@id": "node/3995785235",
        "shop": "supermarket"
      },
      "geometry": {
        "type": "Point",
        "coordinates": [
          -59.1553562,
          -37.3119497
        ]
      },
      "id": "node/3995785235"
    },
    {
      "type": "Feature",
      "properties": {
        "@id": "node/3995785238",
        "name": "Almacén",
        "shop": "convenience"
      },
      "geometry": {
        "type": "Point",
        "coordinates": [
          -59.164668,
          -37.3047726
        ]
      },
      "id": "node/3995785238"
    },
    {
      "type": "Feature",
      "properties": {
        "@id": "node/3995785241",
        "name": "Almacén",
        "shop": "convenience"
      },
      "geometry": {
        "type": "Point",
        "coordinates": [
          -59.1707413,
          -37.3001762
        ]
      },
      "id": "node/3995785241"
    },
    {
      "type": "Feature",
      "properties": {
        "@id": "node/3995785243",
        "name": "Autoservicio",
        "shop": "supermarket"
      },
      "geometry": {
        "type": "Point",
        "coordinates": [
          -59.1710761,
          -37.3001614
        ]
      },
      "id": "node/3995785243"
    },
    {
      "type": "Feature",
      "properties": {
        "@id": "node/3995785248",
        "shop": "convenience"
      },
      "geometry": {
        "type": "Point",
        "coordinates": [
          -59.1728644,
          -37.2988514
        ]
      },
      "id": "node/3995785248"
    },
    {
      "type": "Feature",
      "properties": {
        "@id": "node/3995785250",
        "name": "Mercadito",
        "shop": "supermarket"
      },
      "geometry": {
        "type": "Point",
        "coordinates": [
          -59.1738201,
          -37.2980653
        ]
      },
      "id": "node/3995785250"
    },
    {
      "type": "Feature",
      "properties": {
        "@id": "node/3996070993",
        "name": "Almacén",
        "shop": "convenience"
      },
      "geometry": {
        "type": "Point",
        "coordinates": [
          -59.1211495,
          -37.3190854
        ]
      },
      "id": "node/3996070993"
    },
    {
      "type": "Feature",
      "properties": {
        "@id": "node/3996070994",
        "shop": "supermarket"
      },
      "geometry": {
        "type": "Point",
        "coordinates": [
          -59.1253156,
          -37.3206469
        ]
      },
      "id": "node/3996070994"
    },
    {
      "type": "Feature",
      "properties": {
        "@id": "node/3996070995",
        "name": "Almacén",
        "shop": "convenience"
      },
      "geometry": {
        "type": "Point",
        "coordinates": [
          -59.1274816,
          -37.3214702
        ]
      },
      "id": "node/3996070995"
    },
    {
      "type": "Feature",
      "properties": {
        "@id": "node/3996071000",
        "addr:housenumber": "1119",
        "addr:postcode": "7000",
        "addr:street": "Avenida Balbín",
        "name": "Supermercado Asia",
        "name:es": "Supermercado Asia 171",
        "shop": "supermarket"
      },
      "geometry": {
        "type": "Point",
        "coordinates": [
          -59.1225534,
          -37.31308
        ]
      },
      "id": "node/3996071000"
    },
    {
      "type": "Feature",
      "properties": {
        "@id": "node/3996071006",
        "name": "Autoservicio",
        "shop": "supermarket"
      },
      "geometry": {
        "type": "Point",
        "coordinates": [
          -59.1197543,
          -37.318276
        ]
      },
      "id": "node/3996071006"
    },
    {
      "type": "Feature",
      "properties": {
        "@id": "node/3996077458",
        "shop": "convenience"
      },
      "geometry": {
        "type": "Point",
        "coordinates": [
          -59.1230292,
          -37.3122987
        ]
      },
      "id": "node/3996077458"
    },
    {
      "type": "Feature",
      "properties": {
        "@id": "node/3996599857",
        "name": "El Almacén",
        "shop": "convenience"
      },
      "geometry": {
        "type": "Point",
        "coordinates": [
          -59.1309117,
          -37.3302579
        ]
      },
      "id": "node/3996599857"
    },
    {
      "type": "Feature",
      "properties": {
        "@id": "node/4003045592",
        "name": "Lo de Moris (Regionales)",
        "shop": "convenience"
      },
      "geometry": {
        "type": "Point",
        "coordinates": [
          -59.147744,
          -37.32186
        ]
      },
      "id": "node/4003045592"
    },
    {
      "type": "Feature",
      "properties": {
        "@id": "node/4027213073",
        "name": "Almacén",
        "shop": "convenience"
      },
      "geometry": {
        "type": "Point",
        "coordinates": [
          -59.1283718,
          -37.3379197
        ]
      },
      "id": "node/4027213073"
    },
    {
      "type": "Feature",
      "properties": {
        "@id": "node/4027213084",
        "name": "Granja El Calvario (Regionales)",
        "shop": "convenience"
      },
      "geometry": {
        "type": "Point",
        "coordinates": [
          -59.1509385,
          -37.3285532
        ]
      },
      "id": "node/4027213084"
    },
    {
      "type": "Feature",
      "properties": {
        "@id": "node/4027217089",
        "name": "Quesería de Tí (Regionales)",
        "shop": "convenience"
      },
      "geometry": {
        "type": "Point",
        "coordinates": [
          -59.1233288,
          -37.330186
        ]
      },
      "id": "node/4027217089"
    },
    {
      "type": "Feature",
      "properties": {
        "@id": "node/4028911808",
        "name": "Autoservicio Estrada",
        "shop": "supermarket"
      },
      "geometry": {
        "type": "Point",
        "coordinates": [
          -59.1461667,
          -37.3389924
        ]
      },
      "id": "node/4028911808"
    },
    {
      "type": "Feature",
      "properties": {
        "@id": "node/4028911813",
        "name": "Cerros y Sabores (Regionales)",
        "shop": "convenience"
      },
      "geometry": {
        "type": "Point",
        "coordinates": [
          -59.1443431,
          -37.3380226
        ]
      },
      "id": "node/4028911813"
    },
    {
      "type": "Feature",
      "properties": {
        "@id": "node/4028911816",
        "name": "Fabio´s",
        "shop": "convenience"
      },
      "geometry": {
        "type": "Point",
        "coordinates": [
          -59.1460311,
          -37.3387026
        ]
      },
      "id": "node/4028911816"
    },
    {
      "type": "Feature",
      "properties": {
        "@id": "node/4028911830",
        "name": "Polirrubro 22",
        "shop": "supermarket"
      },
      "geometry": {
        "type": "Point",
        "coordinates": [
          -59.1450805,
          -37.3382725
        ]
      },
      "id": "node/4028911830"
    },
    {
      "type": "Feature",
      "properties": {
        "@id": "node/4028911832",
        "name": "Rincon Serrano (Regionales)",
        "shop": "convenience"
      },
      "geometry": {
        "type": "Point",
        "coordinates": [
          -59.1350872,
          -37.329227
        ]
      },
      "id": "node/4028911832"
    },
    {
      "type": "Feature",
      "properties": {
        "@id": "node/4030473613",
        "name": "El Gales",
        "shop": "convenience"
      },
      "geometry": {
        "type": "Point",
        "coordinates": [
          -59.1196256,
          -37.3656767
        ]
      },
      "id": "node/4030473613"
    },
    {
      "type": "Feature",
      "properties": {
        "@id": "node/4032230226",
        "name": "Cata (Regionales)",
        "shop": "convenience"
      },
      "geometry": {
        "type": "Point",
        "coordinates": [
          -59.1319559,
          -37.3519946
        ]
      },
      "id": "node/4032230226"
    },
    {
      "type": "Feature",
      "properties": {
        "@id": "node/4034041166",
        "name": "El Cazador (Regionales)",
        "shop": "convenience"
      },
      "geometry": {
        "type": "Point",
        "coordinates": [
          -59.1698595,
          -37.3494798
        ]
      },
      "id": "node/4034041166"
    },
    {
      "type": "Feature",
      "properties": {
        "@id": "node/4034041170",
        "name": "Huellas del Tandil (Regionales)",
        "shop": "convenience"
      },
      "geometry": {
        "type": "Point",
        "coordinates": [
          -59.1409338,
          -37.3236742
        ]
      },
      "id": "node/4034041170"
    },
    {
      "type": "Feature",
      "properties": {
        "@id": "node/4034041173",
        "name": "Lanus",
        "shop": "supermarket"
      },
      "geometry": {
        "type": "Point",
        "coordinates": [
          -59.1422497,
          -37.3344
        ]
      },
      "id": "node/4034041173"
    },
    {
      "type": "Feature",
      "properties": {
        "@id": "node/4034580913",
        "name": "Boliche Noli",
        "shop": "convenience"
      },
      "geometry": {
        "type": "Point",
        "coordinates": [
          -59.1227661,
          -37.3598099
        ]
      },
      "id": "node/4034580913"
    },
    {
      "type": "Feature",
      "properties": {
        "@id": "node/4034580915",
        "name": "Almacén",
        "shop": "convenience"
      },
      "geometry": {
        "type": "Point",
        "coordinates": [
          -59.1206937,
          -37.3291257
        ]
      },
      "id": "node/4034580915"
    },
    {
      "type": "Feature",
      "properties": {
        "@id": "node/4155665346",
        "name": "El Baqueano",
        "shop": "convenience"
      },
      "geometry": {
        "type": "Point",
        "coordinates": [
          -59.1701407,
          -37.350852
        ]
      },
      "id": "node/4155665346"
    },
    {
      "type": "Feature",
      "properties": {
        "@id": "node/4414001999",
        "name": "El Cerrito",
        "shop": "convenience"
      },
      "geometry": {
        "type": "Point",
        "coordinates": [
          -59.1236663,
          -37.3302574
        ]
      },
      "id": "node/4414001999"
    },
    {
      "type": "Feature",
      "properties": {
        "@id": "node/5010480460",
        "addr:housenumber": "2212",
        "addr:street": "Avenida Monseñor L. Actis",
        "name": "Supermercado Actis",
        "name:es": "Supermercado Actis 825",
        "shop": "supermarket"
      },
      "geometry": {
        "type": "Point",
        "coordinates": [
          -59.10494,
          -37.3042161
        ]
      },
      "id": "node/5010480460"
    },
    {
      "type": "Feature",
      "properties": {
        "@id": "node/5010481119",
        "addr:housenumber": "1720",
        "addr:street": "Palacios",
        "name": "Supermercado Rodo",
        "name:es": "Supermercado Rodo 1843",
        "phone": "(0249) 444-7758",
        "shop": "supermarket"
      },
      "geometry": {
        "type": "Point",
        "coordinates": [
          -59.1081591,
          -37.3105767
        ]
      },
      "id": "node/5010481119"
    },
    {
      "type": "Feature",
      "properties": {
        "@id": "node/5075787533",
        "addr:city": "Tandil",
        "addr:postcode": "7000",
        "addr:street": "Palacios",
        "name": "Autoservicio Palacios",
        "shop": "convenience"
      },
      "geometry": {
        "type": "Point",
        "coordinates": [
          -59.1053367,
          -37.3085188
        ]
      },
      "id": "node/5075787533"
    },
    {
      "type": "Feature",
      "properties": {
        "@id": "node/5804324637",
        "addr:city": "Tandil",
        "addr:housenumber": "1652",
        "addr:postcode": "7000",
        "addr:street": "Uriburu",
        "name": "Autoservicio Raúl",
        "opening_hours": "Mo-Su 09:00-21:30",
        "operator": "Raúl",
        "shop": "supermarket"
      },
      "geometry": {
        "type": "Point",
        "coordinates": [
          -59.1268025,
          -37.3107825
        ]
      },
      "id": "node/5804324637"
    },
    {
      "type": "Feature",
      "properties": {
        "@id": "node/6479097824",
        "name": "La Moviola",
        "shop": "convenience"
      },
      "geometry": {
        "type": "Point",
        "coordinates": [
          -59.124338,
          -37.3351886
        ]
      },
      "id": "node/6479097824"
    },
    {
      "type": "Feature",
      "properties": {
        "@id": "node/6481763794",
        "name": "Almacén \"El Amarillo\"",
        "shop": "convenience"
      },
      "geometry": {
        "type": "Point",
        "coordinates": [
          -59.1210901,
          -37.3217278
        ]
      },
      "id": "node/6481763794"
    },
    {
      "type": "Feature",
      "properties": {
        "@id": "node/6481763796",
        "name": "Golópolis",
        "shop": "convenience"
      },
      "geometry": {
        "type": "Point",
        "coordinates": [
          -59.1179035,
          -37.3222973
        ]
      },
      "id": "node/6481763796"
    },
    {
      "type": "Feature",
      "properties": {
        "@id": "node/7013803985",
        "addr:housenumber": "744",
        "addr:street": "General Rodríguez",
        "name": "Integral Market",
        "shop": "supermarket"
      },
      "geometry": {
        "type": "Point",
        "coordinates": [
          -59.1377482,
          -37.3246336
        ]
      },
      "id": "node/7013803985"
    },
    {
      "type": "Feature",
      "properties": {
        "@id": "node/7596324908",
        "addr:housenumber": "423",
        "addr:postcode": "7000",
        "addr:street": "Avenida Rivadavia",
        "name": "Asia",
        "name:es": "Supermercado Asia (206)",
        "shop": "supermarket"
      },
      "geometry": {
        "type": "Point",
        "coordinates": [
          -59.1435373,
          -37.3316442
        ]
      },
      "id": "node/7596324908"
    },
    {
      "type": "Feature",
      "properties": {
        "@id": "node/7704154433",
        "shop": "supermarket"
      },
      "geometry": {
        "type": "Point",
        "coordinates": [
          -59.13187,
          -37.3384708
        ]
      },
      "id": "node/7704154433"
    },
    {
      "type": "Feature",
      "properties": {
        "@id": "node/7789359301",
        "addr:city": "Tandil",
        "addr:housenumber": "1709",
        "addr:postcode": "7000",
        "addr:street": "Trabajadores Municipales",
        "name": "Supermercado Asia",
        "name:es": "Supermercado Asia (1912)",
        "opening_hours": "Mo-Su 09:00-20:00",
        "shop": "supermarket"
      },
      "geometry": {
        "type": "Point",
        "coordinates": [
          -59.1510401,
          -37.2936221
        ]
      },
      "id": "node/7789359301"
    },
    {
      "type": "Feature",
      "properties": {
        "@id": "node/7792340786",
        "name": "Persico",
        "shop": "convenience"
      },
      "geometry": {
        "type": "Point",
        "coordinates": [
          -59.1269052,
          -37.3308459
        ]
      },
      "id": "node/7792340786"
    },
    {
      "type": "Feature",
      "properties": {
        "@id": "node/8668723302",
        "name": "YPF Full",
        "shop": "convenience"
      },
      "geometry": {
        "type": "Point",
        "coordinates": [
          -59.1446189,
          -37.3128338
        ]
      },
      "id": "node/8668723302"
    },
    {
      "type": "Feature",
      "properties": {
        "@id": "node/8786359717",
        "addr:housenumber": "985",
        "addr:postcode": "7000",
        "addr:street": "Fugl",
        "name": "Perrone",
        "name:es": "Perrone Malvina Soledad (328)",
        "opening_hours": "Mo-Sa 08:30-19:00",
        "shop": "convenience"
      },
      "geometry": {
        "type": "Point",
        "coordinates": [
          -59.1241391,
          -37.3363162
        ]
      },
      "id": "node/8786359717"
    },
    {
      "type": "Feature",
      "properties": {
        "@id": "node/8786829118",
        "name": "109",
        "shop": "convenience"
      },
      "geometry": {
        "type": "Point",
        "coordinates": [
          -59.1240874,
          -37.3171464
        ]
      },
      "id": "node/8786829118"
    },
    {
      "type": "Feature",
      "properties": {
        "@id": "node/8787154117",
        "name": "768",
        "shop": "convenience"
      },
      "geometry": {
        "type": "Point",
        "coordinates": [
          -59.129,
          -37.3294572
        ]
      },
      "id": "node/8787154117"
    },
    {
      "type": "Feature",
      "properties": {
        "@id": "node/8787164617",
        "name": "203",
        "shop": "convenience"
      },
      "geometry": {
        "type": "Point",
        "coordinates": [
          -59.13282,
          -37.3202764
        ]
      },
      "id": "node/8787164617"
    },
    {
      "type": "Feature",
      "properties": {
        "@id": "node/8787169517",
        "name": "565",
        "shop": "supermarket"
      },
      "geometry": {
        "type": "Point",
        "coordinates": [
          -59.1346437,
          -37.3175434
        ]
      },
      "id": "node/8787169517"
    },
    {
      "type": "Feature",
      "properties": {
        "@id": "node/8787171418",
        "name": "105",
        "shop": "supermarket"
      },
      "geometry": {
        "type": "Point",
        "coordinates": [
          -59.141233,
          -37.3214952
        ]
      },
      "id": "node/8787171418"
    },
    {
      "type": "Feature",
      "properties": {
        "@id": "node/8789210917",
        "addr:street": "Avenida Del Valle",
        "name": "Golopolis",
        "shop": "supermarket"
      },
      "geometry": {
        "type": "Point",
        "coordinates": [
          -59.1371876,
          -37.3104718
        ]
      },
      "id": "node/8789210917"
    },
    {
      "type": "Feature",
      "properties": {
        "@id": "node/8789226318",
        "addr:housenumber": "758",
        "addr:street": "Avenida Del Valle",
        "name": "Asia",
        "name:es": "Asia 151",
        "shop": "supermarket"
      },
      "geometry": {
        "type": "Point",
        "coordinates": [
          -59.1425413,
          -37.3123542
        ]
      },
      "id": "node/8789226318"
    },
    {
      "type": "Feature",
      "properties": {
        "@id": "node/8789248818",
        "addr:housenumber": "1171",
        "addr:street": "Payró",
        "name": "Asi",
        "name:es": "Asi 108",
        "shop": "supermarket"
      },
      "geometry": {
        "type": "Point",
        "coordinates": [
          -59.1535235,
          -37.3242407
        ]
      },
      "id": "node/8789248818"
    },
    {
      "type": "Feature",
      "properties": {
        "@id": "node/8789441917",
        "addr:housenumber": "351",
        "addr:street": "Avenida Alvear",
        "name": "Lo de Martin",
        "name:es": "Lo de Martin 1221",
        "shop": "supermarket"
      },
      "geometry": {
        "type": "Point",
        "coordinates": [
          -59.1315893,
          -37.3382098
        ]
      },
      "id": "node/8789441917"
    },
    {
      "type": "Feature",
      "properties": {
        "@id": "node/8789458717",
        "addr:housenumber": "1097",
        "addr:postcode": "7000",
        "addr:street": "Fugl",
        "name": "Asia Oriental",
        "opening_hours": "Mo-Sa 08:30-21:30;Su,PH 09:00-21:30",
        "shop": "supermarket"
      },
      "geometry": {
        "type": "Point",
        "coordinates": [
          -59.122173,
          -37.3356897
        ]
      },
      "id": "node/8789458717"
    },
    {
      "type": "Feature",
      "properties": {
        "@id": "node/8789594117",
        "addr:housenumber": "1227",
        "addr:street": "Avenida Colón",
        "name": "La Escoba Loca",
        "name:es": "La Escoba Loca 824",
        "shop": "convenience"
      },
      "geometry": {
        "type": "Point",
        "coordinates": [
          -59.1351476,
          -37.3164664
        ]
      },
      "id": "node/8789594117"
    },
    {
      "type": "Feature",
      "properties": {
        "@id": "node/8789870017",
        "addr:housenumber": "1523",
        "addr:street": "Aeronáutica Argentina",
        "name": "Marchioni",
        "name:es": "Marchioni 407",
        "shop": "convenience"
      },
      "geometry": {
        "type": "Point",
        "coordinates": [
          -59.1288817,
          -37.2979321
        ]
      },
      "id": "node/8789870017"
    },
    {
      "type": "Feature",
      "properties": {
        "@id": "node/8790069417",
        "addr:housenumber": "2248",
        "addr:street": "Darragueira",
        "name": "Asia",
        "name:es": "Asia 237",
        "shop": "supermarket"
      },
      "geometry": {
        "type": "Point",
        "coordinates": [
          -59.1263279,
          -37.2985799
        ]
      },
      "id": "node/8790069417"
    },
    {
      "type": "Feature",
      "properties": {
        "@id": "node/8790113417",
        "addr:housenumber": "165",
        "addr:postcode": "7000",
        "addr:street": "Primera Junta",
        "name": "Supermercado Oriental Asia",
        "name:es": "Supermercado Oriental Asia 187",
        "shop": "supermarket"
      },
      "geometry": {
        "type": "Point",
        "coordinates": [
          -59.1066575,
          -37.3213028
        ]
      },
      "id": "node/8790113417"
    },
    {
      "type": "Feature",
      "properties": {
        "@id": "node/8790113418",
        "addr:housenumber": "727",
        "addr:postcode": "7000",
        "addr:street": "Avenida Buzón",
        "name": "Almacén de Limpieza Fernández",
        "name:es": "Almacén de Limpieza Fernández 1217",
        "shop": "convenience"
      },
      "geometry": {
        "type": "Point",
        "coordinates": [
          -59.1183757,
          -37.3202909
        ]
      },
      "id": "node/8790113418"
    },
    {
      "type": "Feature",
      "properties": {
        "@id": "node/8790177118",
        "addr:housenumber": "647",
        "addr:street": "Quintana",
        "name": "Asia quintana",
        "name:es": "Asia 1033",
        "shop": "supermarket"
      },
      "geometry": {
        "type": "Point",
        "coordinates": [
          -59.1433436,
          -37.3069395
        ]
      },
      "id": "node/8790177118"
    },
    {
      "type": "Feature",
      "properties": {
        "@id": "node/8790177218",
        "addr:housenumber": "412",
        "addr:postcode": "7000",
        "addr:street": "Nigro",
        "name": "Maxi Higiene",
        "name:es": "Maxi Higiene Acosta 767",
        "shop": "convenience"
      },
      "geometry": {
        "type": "Point",
        "coordinates": [
          -59.1374567,
          -37.3103828
        ]
      },
      "id": "node/8790177218"
    },
    {
      "type": "Feature",
      "properties": {
        "@id": "node/8790185418",
        "addr:housenumber": "417",
        "addr:street": "Quintana",
        "name": "Romina",
        "name:es": "Carbonaro Romina 828",
        "shop": "convenience"
      },
      "geometry": {
        "type": "Point",
        "coordinates": [
          -59.1409283,
          -37.3088236
        ]
      },
      "id": "node/8790185418"
    },
    {
      "type": "Feature",
      "properties": {
        "@id": "node/8790199417",
        "addr:street": "Quintana",
        "name": "Si Gu Ardito",
        "shop": "supermarket"
      },
      "geometry": {
        "type": "Point",
        "coordinates": [
          -59.1462216,
          -37.3046534
        ]
      },
      "id": "node/8790199417"
    },
    {
      "type": "Feature",
      "properties": {
        "@id": "node/8790203617",
        "addr:housenumber": "406",
        "addr:street": "Urquiza",
        "name": "Limpieza Villa Italia Martínez",
        "name:es": "Limpieza Villa Italia Martínez 769",
        "shop": "convenience"
      },
      "geometry": {
        "type": "Point",
        "coordinates": [
          -59.1450362,
          -37.3055212
        ]
      },
      "id": "node/8790203617"
    },
    {
      "type": "Feature",
      "properties": {
        "@id": "node/8790220317",
        "addr:housenumber": "601",
        "addr:street": "Urquiza",
        "name": "Si Gu",
        "shop": "supermarket"
      },
      "geometry": {
        "type": "Point",
        "coordinates": [
          -59.1427759,
          -37.303646
        ]
      },
      "id": "node/8790220317"
    },
    {
      "type": "Feature",
      "properties": {
        "@id": "node/8790225617",
        "addr:housenumber": "567",
        "addr:postcode": "7000",
        "addr:street": "Intendente Dufau",
        "name": "Las 2 Marías Garbellini",
        "shop": "supermarket"
      },
      "geometry": {
        "type": "Point",
        "coordinates": [
          -59.1413216,
          -37.3067198
        ]
      },
      "id": "node/8790225617"
    },
    {
      "type": "Feature",
      "properties": {
        "@id": "node/8790290617",
        "addr:housenumber": "583",
        "addr:street": "Avenida Brasil",
        "name": "AuroLimp Basso",
        "name:es": "AuroLimp Basso 121",
        "shop": "convenience"
      },
      "geometry": {
        "type": "Point",
        "coordinates": [
          -59.1106948,
          -37.3336991
        ]
      },
      "id": "node/8790290617"
    },
    {
      "type": "Feature",
      "properties": {
        "@id": "node/8790363417",
        "addr:housenumber": "6",
        "addr:street": "Carriego",
        "name": "La prosperidad 1",
        "name:es": "La prosperidad 1 (1459)",
        "shop": "convenience"
      },
      "geometry": {
        "type": "Point",
        "coordinates": [
          -59.1159579,
          -37.3275314
        ]
      },
      "id": "node/8790363417"
    },
    {
      "type": "Feature",
      "properties": {
        "@id": "node/8791784754",
        "addr:housenumber": "1399",
        "addr:street": "San Lorenzo",
        "name": "La Prosperidad 2",
        "shop": "convenience"
      },
      "geometry": {
        "type": "Point",
        "coordinates": [
          -59.1478548,
          -37.3189287
        ]
      },
      "id": "node/8791784754"
    },
    {
      "type": "Feature",
      "properties": {
        "@id": "node/8791805031",
        "addr:housenumber": "763",
        "addr:postcode": "7000",
        "addr:street": "9 de Julio",
        "name": "Figueras",
        "name:es": "Figueras (2146)",
        "shop": "convenience"
      },
      "geometry": {
        "type": "Point",
        "coordinates": [
          -59.1363487,
          -37.323836
        ]
      },
      "id": "node/8791805031"
    },
    {
      "type": "Feature",
      "properties": {
        "@id": "node/8791822319",
        "addr:housenumber": "1529",
        "addr:street": "Yrigoyen",
        "name": "Más Brillante Fallabela",
        "name:es": "Más Brillante Falabella (827)",
        "shop": "convenience"
      },
      "geometry": {
        "type": "Point",
        "coordinates": [
          -59.1445822,
          -37.315744
        ]
      },
      "id": "node/8791822319"
    },
    {
      "type": "Feature",
      "properties": {
        "@id": "node/8791843220",
        "addr:housenumber": "963",
        "addr:street": "Machado",
        "name": "La Nueva del Valle",
        "name:es": "La Nueva del Valle Montes (360)",
        "shop": "supermarket"
      },
      "geometry": {
        "type": "Point",
        "coordinates": [
          -59.1384316,
          -37.3125008
        ]
      },
      "id": "node/8791843220"
    },
    {
      "type": "Feature",
      "properties": {
        "@id": "node/8792162423",
        "addr:housenumber": "1693",
        "addr:postcode": "7000",
        "addr:street": "Avenida Monseñor L. Actis",
        "name": "La Prosperidad 3",
        "shop": "convenience"
      },
      "geometry": {
        "type": "Point",
        "coordinates": [
          -59.1106974,
          -37.3091256
        ]
      },
      "id": "node/8792162423"
    },
    {
      "type": "Feature",
      "properties": {
        "@id": "node/8792283318",
        "addr:housenumber": "1504",
        "addr:postcode": "7000",
        "addr:street": "México",
        "name": "Bujam",
        "name:es": "Bujam (1414)",
        "shop": "supermarket"
      },
      "geometry": {
        "type": "Point",
        "coordinates": [
          -59.118415,
          -37.3066073
        ]
      },
      "id": "node/8792283318"
    },
    {
      "type": "Feature",
      "properties": {
        "@id": "node/8792318717",
        "addr:housenumber": "1202",
        "addr:street": "Darragueira",
        "name": "Alvares",
        "name:es": "Alvarez (1459)",
        "shop": "convenience"
      },
      "geometry": {
        "type": "Point",
        "coordinates": [
          -59.1141707,
          -37.3081326
        ]
      },
      "id": "node/8792318717"
    },
    {
      "type": "Feature",
      "properties": {
        "@id": "node/8792838817",
        "addr:housenumber": "2190",
        "addr:postcode": "7000",
        "addr:street": "Avenida Lunghi",
        "name": "Supermercado Asia",
        "name:es": "Supermercado Asia (826)",
        "shop": "supermarket"
      },
      "geometry": {
        "type": "Point",
        "coordinates": [
          -59.1703998,
          -37.299848
        ]
      },
      "id": "node/8792838817"
    },
    {
      "type": "Feature",
      "properties": {
        "@id": "node/8792960718",
        "addr:housenumber": "399",
        "addr:postcode": "7000",
        "addr:street": "Corrientes",
        "name": "Supermercado Oriente Asia",
        "name:es": "Supermercado Oriente Asia (822)",
        "shop": "supermarket"
      },
      "geometry": {
        "type": "Point",
        "coordinates": [
          -59.1613565,
          -37.2929707
        ]
      },
      "id": "node/8792960718"
    },
    {
      "type": "Feature",
      "properties": {
        "@id": "node/8793393817",
        "addr:housenumber": "1056",
        "addr:postcode": "7000",
        "addr:street": "Francisco Beiró",
        "name": "Super Beiro (2273)",
        "shop": "supermarket"
      },
      "geometry": {
        "type": "Point",
        "coordinates": [
          -59.1435097,
          -37.2995833
        ]
      },
      "id": "node/8793393817"
    },
    {
      "type": "Feature",
      "properties": {
        "@id": "node/8795346217",
        "addr:housenumber": "586",
        "addr:postcode": "7000",
        "addr:street": "Avenida Juan B. Justo",
        "name": "Supermercado Oriental",
        "name:es": "Supermercado Oriental (1789)",
        "shop": "supermarket"
      },
      "geometry": {
        "type": "Point",
        "coordinates": [
          -59.161383,
          -37.3197351
        ]
      },
      "id": "node/8795346217"
    },
    {
      "type": "Feature",
      "properties": {
        "@id": "node/9328226494",
        "name": "Autoservicio Los Manantiales",
        "shop": "supermarket"
      },
      "geometry": {
        "type": "Point",
        "coordinates": [
          -59.113175,
          -37.3399032
        ]
      },
      "id": "node/9328226494"
    },
    {
      "type": "Feature",
      "properties": {
        "@id": "node/9567135556",
        "shop": "convenience"
      },
      "geometry": {
        "type": "Point",
        "coordinates": [
          -59.1363778,
          -37.3323076
        ]
      },
      "id": "node/9567135556"
    },
    {
      "type": "Feature",
      "properties": {
        "@id": "node/13578250451",
        "addr:city": "Tandil",
        "addr:housenumber": "705",
        "addr:postcode": "7000",
        "addr:street": "Lobería",
        "description": "Comercializadora Solidaria de productos alimenticios elaborados de forma autogestionada y cooperativa en Tandil.",
        "diet:gluten_free": "yes",
        "diet:vegan": "yes",
        "diet:vegetarian": "yes",
        "name": "ConSuma Dignidad Tandil",
        "opening_hours": "Mo-Fr 16:00-20:00",
        "organic": "yes",
        "payment:app": "yes",
        "payment:cash": "yes",
        "payment:debit_cards": "yes",
        "phone": "2494 35-0712",
        "shop": "supermarket",
        "start_date": "2016",
        "website": "https://www.consumadignidad.com.ar/"
      },
      "geometry": {
        "type": "Point",
        "coordinates": [
          -59.1271614,
          -37.3390412
        ]
      },
      "id": "node/13578250451"
    }
  ]
}